{
    "links": {
        "self": "http://www.neowsapp.com/rest/v1/neo/3634129?api_key=iIulBulltgU6a56xZRHN4H3l9WmuAYTsLGpBGhQ2"
    },
    "id": "3634129",
    "neo_reference_id": "3634129",
    "name": "(2013 GH)",
    "designation": "2013 GH",
    "nasa_jpl_url": "http://ssd.jpl.nasa.gov/sbdb.cgi?sstr=3634129",
    "absolute_magnitude_h": 23.5,
    "estimated_diameter": {
        "kilometers": {
            "estimated_diameter_min": 0.0530340723,
            "estimated_diameter_max": 0.1185877909
        },
        "meters": {
            "estimated_diameter_min": 53.0340723319,
            "estimated_diameter_max": 118.5877908577
        },
        "miles": {
            "estimated_diameter_min": 0.0329538346,
            "estimated_diameter_max": 0.0736870142
        },
        "feet": {
            "estimated_diameter_min": 173.9963058693,
            "estimated_diameter_max": 389.0675677576
        }
    },
    "is_potentially_hazardous_asteroid": false,
    "close_approach_data": [
        {
            "close_approach_date": "2009-03-24",
            "close_approach_date_full": "2009-Mar-24 05:35",
            "epoch_date_close_approach": 1237872900000,
            "relative_velocity": {
                "kilometers_per_second": "6.3193529666",
                "kilometers_per_hour": "22749.6706799072",
                "miles_per_hour": "14135.760651079"
            },
            "miss_distance": {
                "astronomical": "0.3266857056",
                "lunar": "127.0807394784",
                "kilometers": "48871485.717207072",
                "miles": "30367333.0727267136"
            },
            "orbiting_body": "Earth"
        },
        {
            "close_approach_date": "2011-04-06",
            "close_approach_date_full": "2011-Apr-06 19:26",
            "epoch_date_close_approach": 1302117960000,
            "relative_velocity": {
                "kilometers_per_second": "6.0672009691",
                "kilometers_per_hour": "21841.9234889278",
                "miles_per_hour": "13571.7218478841"
            },
            "miss_distance": {
                "astronomical": "0.1931331804",
                "lunar": "75.1288071756",
                "kilometers": "28892312.414165748",
                "miles": "17952850.4494254024"
            },
            "orbiting_body": "Earth"
        },
        {
            "close_approach_date": "2013-04-10",
            "close_approach_date_full": "2013-Apr-10 14:34",
            "epoch_date_close_approach": 1365604440000,
            "relative_velocity": {
                "kilometers_per_second": "5.923548811",
                "kilometers_per_hour": "21324.7757194854",
                "miles_per_hour": "13250.3863352547"
            },
            "miss_distance": {
                "astronomical": "0.1420927105",
                "lunar": "55.2740643845",
                "kilometers": "21256766.833326635",
                "miles": "13208342.431252163"
            },
            "orbiting_body": "Earth"
        },
        {
            "close_approach_date": "2015-04-15",
            "close_approach_date_full": "2015-Apr-15 08:20",
            "epoch_date_close_approach": 1429086000000,
            "relative_velocity": {
                "kilometers_per_second": "7.0493684678",
                "kilometers_per_hour": "25377.7264840595",
                "miles_per_hour": "15768.7323256091"
            },
            "miss_distance": {
                "astronomical": "0.2372910106",
                "lunar": "92.3062031234",
                "kilometers": "35498229.755907422",
                "miles": "22057577.1468775436"
            },
            "orbiting_body": "Earth"
        },
        {
            "close_approach_date": "2017-04-29",
            "close_approach_date_full": "2017-Apr-29 20:24",
            "epoch_date_close_approach": 1493497440000,
            "relative_velocity": {
                "kilometers_per_second": "7.3102317847",
                "kilometers_per_hour": "26316.834424945",
                "miles_per_hour": "16352.257479211"
            },
            "miss_distance": {
                "astronomical": "0.3815628883",
                "lunar": "148.4279635487",
                "kilometers": "57080995.360727921",
                "miles": "35468485.8216144698"
            },
            "orbiting_body": "Earth"
        }
    ],
    "orbital_data": {
        "orbit_id": "11",
        "orbit_determination_date": "2017-04-06 08:46:17",
        "first_observation_date": "2013-04-02",
        "last_observation_date": "2013-05-08",
        "data_arc_in_days": 36,
        "observations_used": 45,
        "orbit_uncertainty": "7",
        "minimum_orbit_intersection": ".139336",
        "jupiter_tisserand_invariant": "4.348",
        "epoch_osculation": "2459000.5",
        "eccentricity": ".2750211771178056",
        "semi_major_axis": "1.572910325531615",
        "inclination": "10.42032829303124",
        "ascending_node_longitude": "15.26363546760452",
        "orbital_period": "720.5338228178016",
        "perihelion_distance": "1.14032667630316",
        "perihelion_argument": "186.2400115043229",
        "aphelion_distance": "2.005493974760071",
        "perihelion_time": "2459275.371817832141",
        "mean_anomaly": "222.6659134021074",
        "mean_motion": ".4996295643584683",
        "equinox": "J2000",
        "orbit_class": {
            "orbit_class_type": "AMO",
            "orbit_class_description": "Near-Earth asteroid orbits similar to that of 1221 Amor",
            "orbit_class_range": "1.017 AU < q (perihelion) < 1.3 AU"
        }
    },
    "is_sentry_object": false
}